{
  "type": "FeatureCollection",
  "features": [
    {
      "type": "Feature",
      "properties": {
        "norad_id": 43823,
        "name": "GEO-KOMPSAT-2A",
        "group": "weather",
        "lat": -0.018107566886315717,
        "lon": 77.27079460090187,
        "alt_km": 35787.558901162985,
        "timestamp": "2025-12-02T15:49:06.826433+00:00",
        "meta_object_name": "GEO-KOMPSAT-2A",
        "meta_object_id": "2018-100A",
        "meta_epoch": "2025-12-02T05:57:38.749824",
        "meta_mean_motion": 1.00270582,
        "meta_eccentricity": 5.696e-05,
        "meta_inclination": 0.0606,
        "meta_ra_of_asc_node": 123.2735,
        "meta_arg_of_pericenter": 70.3508,
        "meta_mean_anomaly": 95.4102,
        "meta_ephemeris_type": 0,
        "meta_classification_type": "U",
        "meta_norad_cat_id": 43823,
        "meta_element_set_no": 999,
        "meta_rev_at_epoch": 2565,
        "meta_bstar": 0,
        "meta_mean_motion_dot": -3.23e-06,
        "meta_mean_motion_ddot": 0,
        "tle_line1": "1 43823U 18100A   25336.24836516 -.00000323  00000+0  00000+0 0  9991",
        "tle_line2": "2 43823   0.0606 123.2735 0000569  70.3508  95.4102  1.00270582 25654"
      },
      "geometry": {
        "type": "Point",
        "coordinates": [
          77.27079460090187,
          -0.018107566886315717
        ]
      }
    },
    {
      "type": "Feature",
      "properties": {
        "norad_id": 44387,
        "name": "METEOR-M2 2",
        "group": "weather",
        "lat": -16.179391379825255,
        "lon": 133.66048961481425,
        "alt_km": 815.1322296766848,
        "timestamp": "2025-12-02T15:49:06.826444+00:00",
        "meta_object_name": "METEOR-M2 2",
        "meta_object_id": "2019-038A",
        "meta_epoch": "2025-12-02T06:28:11.762976",
        "meta_mean_motion": 14.24284264,
        "meta_eccentricity": 8.241e-05,
        "meta_inclination": 98.8962,
        "meta_ra_of_asc_node": 315.8709,
        "meta_arg_of_pericenter": 170.593,
        "meta_mean_anomaly": 189.5264,
        "meta_ephemeris_type": 0,
        "meta_classification_type": "U",
        "meta_norad_cat_id": 44387,
        "meta_element_set_no": 999,
        "meta_rev_at_epoch": 33326,
        "meta_bstar": 0.00012418604,
        "meta_mean_motion_dot": 2.41e-06,
        "meta_mean_motion_ddot": 0,
        "tle_line1": "1 44387U 19038A   25336.26958059  .00000241  00000+0  12419-3 0  9996",
        "tle_line2": "2 44387  98.8962 315.8709 0000824 170.5930 189.5264 14.24284264333261"
      },
      "geometry": {
        "type": "Point",
        "coordinates": [
          133.66048961481425,
          -16.179391379825255
        ]
      }
    },
    {
      "type": "Feature",
      "properties": {
        "norad_id": 47719,
        "name": "ARKTIKA-M 1",
        "group": "weather",
        "lat": 41.31987618662082,
        "lon": 111.75606277950365,
        "alt_km": 21496.800116603423,
        "timestamp": "2025-12-02T15:49:06.826457+00:00",
        "meta_object_name": "ARKTIKA-M 1",
        "meta_object_id": "2021-016A",
        "meta_epoch": "2025-12-01T02:41:41.634816",
        "meta_mean_motion": 2.00613156,
        "meta_eccentricity": 0.71974708,
        "meta_inclination": 63.1756,
        "meta_ra_of_asc_node": 85.6045,
        "meta_arg_of_pericenter": 269.084,
        "meta_mean_anomaly": 15.7076,
        "meta_ephemeris_type": 0,
        "meta_classification_type": "U",
        "meta_norad_cat_id": 47719,
        "meta_element_set_no": 999,
        "meta_rev_at_epoch": 3481,
        "meta_bstar": 0,
        "meta_mean_motion_dot": -1.2e-07,
        "meta_mean_motion_ddot": 0,
        "tle_line1": "1 47719U 21016A   25335.11228744 -.00000012  00000+0  00000+0 0  9997",
        "tle_line2": "2 47719  63.1756  85.6045 7197470 269.0840  15.7076  2.00613156 34816"
      },
      "geometry": {
        "type": "Point",
        "coordinates": [
          111.75606277950365,
          41.31987618662082
        ]
      }
    },
    {
      "type": "Feature",
      "properties": {
        "norad_id": 49008,
        "name": "FENGYUN 3E",
        "group": "weather",
        "lat": -43.95591238472941,
        "lon": -14.162780598402277,
        "alt_km": 831.8424386575434,
        "timestamp": "2025-12-02T15:49:06.826472+00:00",
        "meta_object_name": "FENGYUN 3E",
        "meta_object_id": "2021-062A",
        "meta_epoch": "2025-12-02T05:52:50.909952",
        "meta_mean_motion": 14.19877727,
        "meta_eccentricity": 8.03e-05,
        "meta_inclination": 98.7475,
        "meta_ra_of_asc_node": 336.8906,
        "meta_arg_of_pericenter": 330.8589,
        "meta_mean_anomaly": 29.2542,
        "meta_ephemeris_type": 0,
        "meta_classification_type": "U",
        "meta_norad_cat_id": 49008,
        "meta_element_set_no": 999,
        "meta_rev_at_epoch": 22863,
        "meta_bstar": 4.6244483e-05,
        "meta_mean_motion_dot": 5.4e-07,
        "meta_mean_motion_ddot": 0,
        "tle_line1": "1 49008U 21062A   25336.24503368  .00000054  00000+0  46244-4 0  9994",
        "tle_line2": "2 49008  98.7475 336.8906 0000803 330.8589  29.2542 14.19877727228633"
      },
      "geometry": {
        "type": "Point",
        "coordinates": [
          -14.162780598402277,
          -43.95591238472941
        ]
      }
    },
    {
      "type": "Feature",
      "properties": {
        "norad_id": 51850,
        "name": "GOES 18",
        "group": "weather",
        "lat": 5.696927480062984e-05,
        "lon": 172.00458577193618,
        "alt_km": 35787.72427890132,
        "timestamp": "2025-12-02T15:49:06.826484+00:00",
        "meta_object_name": "GOES 18",
        "meta_object_id": "2022-021A",
        "meta_epoch": "2025-12-02T04:34:17.974848",
        "meta_mean_motion": 1.00270135,
        "meta_eccentricity": 6.713e-05,
        "meta_inclination": 0.0134,
        "meta_ra_of_asc_node": 78.1452,
        "meta_arg_of_pericenter": 209.7823,
        "meta_mean_anomaly": 74.949,
        "meta_ephemeris_type": 0,
        "meta_classification_type": "U",
        "meta_norad_cat_id": 51850,
        "meta_element_set_no": 999,
        "meta_rev_at_epoch": 461,
        "meta_bstar": 0,
        "meta_mean_motion_dot": 1.18e-06,
        "meta_mean_motion_ddot": 0,
        "tle_line1": "1 51850U 22021A   25336.19048582  .00000118  00000+0  00000+0 0  9990",
        "tle_line2": "2 51850   0.0134  78.1452 0000671 209.7823  74.9490  1.00270135  4614"
      },
      "geometry": {
        "type": "Point",
        "coordinates": [
          172.00458577193618,
          5.696927480062984e-05
        ]
      }
    },
    {
      "type": "Feature",
      "properties": {
        "norad_id": 54234,
        "name": "NOAA 21 (JPSS-2)",
        "group": "weather",
        "lat": -25.000010097733806,
        "lon": -82.79041483971373,
        "alt_km": 832.2407285338722,
        "timestamp": "2025-12-02T15:49:06.826495+00:00",
        "meta_object_name": "NOAA 21 (JPSS-2)",
        "meta_object_id": "2022-150A",
        "meta_epoch": "2025-12-02T05:47:15.155232",
        "meta_mean_motion": 14.19519442,
        "meta_eccentricity": 0.00025606,
        "meta_inclination": 98.7446,
        "meta_ra_of_asc_node": 272.6812,
        "meta_arg_of_pericenter": 57.68,
        "meta_mean_anomaly": 302.4624,
        "meta_ephemeris_type": 0,
        "meta_classification_type": "U",
        "meta_norad_cat_id": 54234,
        "meta_element_set_no": 999,
        "meta_rev_at_epoch": 15860,
        "meta_bstar": 8.6609096e-05,
        "meta_mean_motion_dot": 1.39e-06,
        "meta_mean_motion_ddot": 0,
        "tle_line1": "1 54234U 22150A   25336.24114763  .00000139  00000+0  86609-4 0  9990",
        "tle_line2": "2 54234  98.7446 272.6812 0002560  57.6800 302.4624 14.19519442158606"
      },
      "geometry": {
        "type": "Point",
        "coordinates": [
          -82.79041483971373,
          -25.000010097733806
        ]
      }
    },
    {
      "type": "Feature",
      "properties": {
        "norad_id": 54743,
        "name": "METEOSAT-12 (MTG-I1)",
        "group": "weather",
        "lat": -0.7087598227575405,
        "lon": -51.267509801870276,
        "alt_km": 35783.1251541313,
        "timestamp": "2025-12-02T15:49:06.826507+00:00",
        "meta_object_name": "METEOSAT-12 (MTG-I1)",
        "meta_object_id": "2022-170C",
        "meta_epoch": "2025-12-02T05:13:21.733824",
        "meta_mean_motion": 1.00273502,
        "meta_eccentricity": 0.00014521,
        "meta_inclination": 0.7156,
        "meta_ra_of_asc_node": 29.7933,
        "meta_arg_of_pericenter": 213.3706,
        "meta_mean_anomaly": 266.2036,
        "meta_ephemeris_type": 0,
        "meta_classification_type": "U",
        "meta_norad_cat_id": 54743,
        "meta_element_set_no": 999,
        "meta_rev_at_epoch": 1100,
        "meta_bstar": 0,
        "meta_mean_motion_dot": 1.4e-07,
        "meta_mean_motion_ddot": 0,
        "tle_line1": "1 54743U 22170C   25336.21761266  .00000014  00000+0  00000+0 0  9998",
        "tle_line2": "2 54743   0.7156  29.7933 0001452 213.3706 266.2036  1.00273502 11008"
      },
      "geometry": {
        "type": "Point",
        "coordinates": [
          -51.267509801870276,
          -0.7087598227575405
        ]
      }
    }
  ]
}